GLOBALSTAR M001         
1 25162U 98008A   25279.51412350 -.00000037  00000+0  45868-3 0  9991
2 25162  52.0062   9.1950 0002024 125.4098 306.1688 12.38219383257505
GLOBALSTAR M004         
1 25163U 98008B   25279.45923524 -.00000107  00000+0 -17834-4 0  9997
2 25163  51.9999  74.6830 0003406 162.7492 231.1237 12.63404756275756
GLOBALSTAR M002         
1 25164U 98008C   25279.43735552 -.00000081  00000+0 -93943-4 0  9994
2 25164  52.0033 321.2650 0001273 357.6256   2.4558 11.61511906196998
GLOBALSTAR M003         
1 25165U 98008D   25279.38618803 -.00000208  00000+0 -12638-2 0  9999
2 25165  51.9935 220.5425 0007941 151.6420 358.6439 12.12057111246701
GLOBALSTAR M014         
1 25306U 98023A   25279.46764458 -.00000079  00000+0 -32367-4 0  9999
2 25306  51.9823 242.0707 0000502 188.2974 327.0738 11.65482345204144
GLOBALSTAR M006         
1 25307U 98023B   25279.48431015 -.00000053  00000+0  46761-3 0  9995
2 25307  51.9942 298.6640 0002994 309.4286 201.5622 11.58176528229724
GLOBALSTAR M015         
1 25308U 98023C   25279.51214273 -.00000089  00000+0 -36182-3 0  9991
2 25308  51.9846  42.1618 0011760 272.8813 183.4961 11.48858806206875
GLOBALSTAR M008         
1 25309U 98023D   25279.44149278 -.00000090  00000+0  47396-4 0  9997
2 25309  51.9958 235.4981 0003152  50.5289 102.5976 12.36073458251603
